{
    "CCSDS_OMM_VERS": "3.0",
    "COMMENT": "GENERATED VIA SPACE-TRACK.ORG API",
    "CREATION_DATE": "2025-05-22T22:36:18",
    "ORIGINATOR": "18 SPCS",
    "OBJECT_NAME": "BEIDOU 3M18",
    "OBJECT_ID": "2018-093B",
    "CENTER_NAME": "EARTH",
    "REF_FRAME": "TEME",
    "TIME_SYSTEM": "UTC",
    "MEAN_ELEMENT_THEORY": "SGP4",
    "EPOCH": "2025-05-22T19:19:43.520448",
    "MEAN_MOTION": "1.86229688",
    "ECCENTRICITY": "0.00074580",
    "INCLINATION": "54.1840",
    "RA_OF_ASC_NODE": "195.5322",
    "ARG_OF_PERICENTER": "312.2197",
    "MEAN_ANOMALY": "47.8002",
    "EPHEMERIS_TYPE": "0",
    "CLASSIFICATION_TYPE": "U",
    "NORAD_CAT_ID": "43707",
    "ELEMENT_SET_NO": "999",
    "REV_AT_EPOCH": "4426",
    "BSTAR": "0.00000000000000",
    "MEAN_MOTION_DOT": "0.00000079",
    "MEAN_MOTION_DDOT": "0.0000000000000",
    "SEMIMAJOR_AXIS": "27906.320",
    "PERIOD": "773.239",
    "APOAPSIS": "21548.997",
    "PERIAPSIS": "21507.372",
    "OBJECT_TYPE": "PAYLOAD",
    "RCS_SIZE": "LARGE",
    "COUNTRY_CODE": "PRC",
    "LAUNCH_DATE": "2018-11-18",
    "SITE": "XSC",
    "DECAY_DATE": null,
    "FILE": "4736361",
    "GP_ID": "288161813",
    "TLE_LINE0": "0 BEIDOU 3M18",
    "TLE_LINE1": "1 43707U 18093B   25142.80536482  .00000079  00000-0  00000+0 0  9997",
    "TLE_LINE2": "2 43707  54.1840 195.5322 0007458 312.2197  47.8002  1.86229688 44268"
}